DELTA 2 R/B(1)          
1 20453U 90008B   26126.49219040  .00059239  00000+0  54203-3 0  9991
2 20453  35.6001 153.3378 0070852  82.1670 278.7105 15.63378579935165
COSMOS 2058             
1 20465U 90010A   26126.57154880  .00003550  00000+0  20623-3 0  9990
2 20465  82.4674 350.3937 0011068 127.1150 233.1094 15.11768303950981
SL-14 R/B               
1 20466U 90010B   26126.48768613  .00000383  00000+0  43400-4 0  9996
2 20466  82.5044 213.1006 0021301 108.3069 252.0466 14.83621119937055
SL-14 R/B               
1 20511U 90018B   26126.22337694  .00000298  00000+0  34474-4 0  9994
2 20511  82.5218 169.3314 0014701 261.6659  98.2889 14.82191111931109
HST                     
1 20580U 90037B   26126.34630885  .00006705  00000+0  21457-3 0  9997
2 20580  28.4764   6.4301 0002109  43.1477 316.9284 15.30301670782152
SL-16 R/B               
1 20625U 90046B   26126.59368228  .00000241  00000+0  14874-3 0  9997
2 20625  70.9987 176.3031 0015656 222.9834 137.0066 14.15021653856584
COSMOS 2084             
1 20663U 90055A   26126.42991912  .00001825  00000+0  13853-3 0  9998
2 20663  62.7881 138.5941 0008202 218.7452 141.3061 15.05948351945019
SL-6 R/B(2)             
1 20666U 90055D   26126.22667728  .00002246  00000+0  17505-3 0  9990
2 20666  62.7838  58.1449 0034011 358.7793   1.3218 15.03853880946845
SL-8 R/B                
1 20775U 90078B   26126.46794440  .00022202  00000+0  64079-3 0  9996
2 20775  82.9039 199.2895 0355258 178.8394 181.3743 14.90906278817903
SL-8 R/B                
1 21088U 91006B   26126.46129972  .00000068  00000+0  53361-4 0  9997
2 21088  82.9394 127.0776 0021230 231.0318 281.5370 13.77506557772022
OKEAN-3                 
1 21397U 91039A   26126.39092889  .00002687  00000+0  18639-3 0  9991
2 21397  82.5154 280.9082 0015272 131.7532 228.5004 15.05128917873713
COSMOS 2151             
1 21422U 91042A   26126.57748453  .00001377  00000+0  10755-3 0  9995
2 21422  82.4988  27.8307 0011127 218.2758 141.7677 15.00329748871877
SL-14 R/B               
1 21423U 91042B   26126.35621394  .00000306  00000+0  35589-4 0  9990
2 21423  82.4932 166.1240 0018266  54.9721 305.3204 14.81876844861613
ERS-1                   
1 21574U 91050A   26126.52951172  .00000283  00000+0  10507-3 0  9991
2 21574  98.7824 146.2058 0032501  32.6716 327.6473 14.39491254824054
ARIANE 40 R/B           
1 21610U 91050F   26126.37370017  .00000271  00000+0  93401-4 0  9990
2 21610  98.1908 176.4126 0001839 247.4194 112.6802 14.42932278827319
INTERCOSMOS 25          
1 21819U 91086A   26126.35125833  .00000633  00000+0  12205-3 0  9996
2 21819  82.6010 275.1278 1485496 352.6478   5.4784 12.12147199503670
SL-8 R/B                
1 21876U 92008B   26126.52154883  .00000088  00000+0  74838-4 0  9995
2 21876  82.9288 224.7621 0033880 335.1971  35.0657 13.75972040717377
SL-8 R/B                
1 21938U 92020B   26126.38491538 -.00000019  00000+0 -35858-4 0  9998
2 21938  82.9271 110.9075 0030037 134.6639 338.3853 13.75547646709065
USA 81                  
1 21949U 92023A   26126.36091186  .00000182  00000+0  59929-4 0  9990
2 21949  85.0046  98.1469 0001729 111.5147 248.6230 14.32386083103047
COSMOS 2219             
1 22219U 92076A   26126.59691008  .00000135  00000+0  95512-4 0  9999
2 22219  71.0612 257.0125 0016104 114.3632 245.9174 14.14102900726569
SL-16 R/B               
1 22220U 92076B   26126.31614972  .00000260  00000+0  15335-3 0  9999
2 22220  71.0004  66.9831 0012722 357.1648 116.8501 14.16868249729990
COSMOS 2221             
1 22236U 92080A   26126.54879528  .00001729  00000+0  15003-3 0  9999
2 22236  82.5055 223.6490 0014079   4.5564 355.5783 14.96428876789446
SL-16 R/B               
1 22285U 92093B   26126.33542791 -.00000064  00000+0 -83649-5 0  9999
2 22285  71.0224 243.2480 0006027 237.1292 122.9252 14.15461843721315
COSMOS 2228             
1 22286U 92094A   26126.59295847  .00001603  00000+0  13499-3 0  9998
2 22286  82.5191 181.8779 0019525 106.3284 254.0088 14.97450170784728
SL-16 R/B               
1 22566U 93016B   26126.31104839  .00000040  00000+0  45029-4 0  9993
2 22566  71.0044  94.1600 0012212 241.0815 118.9083 14.15307498710323
COSMOS 2242             
1 22626U 93024A   26126.33323279  .00001643  00000+0  14086-3 0  9990
2 22626  82.5207 211.5768 0017772 110.5339 249.7792 14.96786301789010
SL-16 R/B               
1 22803U 93059B   26126.35331534 -.00000044  00000+0  21045-5 0  9990
2 22803  70.9907 249.5217 0015287 127.0272 233.2253 14.17242830687703
ARIANE 40 R/B           
1 22830U 93061H   26126.44785508  .00000199  00000+0  88519-4 0  9995
2 22830  98.4833 194.1680 0011937 111.6663 248.5793 14.32889817702374
COSMOS 2278             
1 23087U 94023A   26126.52026418 -.00000102  00000+0 -28727-4 0  9997
2 23087  71.0552  54.1029 0011101 294.2010  65.7952 14.14389244652989
SL-16 R/B               
1 23088U 94023B   26126.25795015  .00000305  00000+0  18222-3 0  9995
2 23088  70.9997 309.9883 0004721 231.3519 128.7181 14.15019576654239
SL-16 R/B               
1 23343U 94074B   26126.34090097  .00000390  00000+0  58852-4 0  9991
2 23343  97.7024 154.8000 0007517  43.7558 326.7956 14.79466701695773
SL-16 R/B               
1 23405U 94077B   26126.57039832 -.00000247  00000+0 -10164-3 0  9994
2 23405  70.9832 230.7150 0000604  16.9954 343.1189 14.15570737624424
ARIANE 40+ R/B          
1 23561U 95021B   26126.48764497  .00000251  00000+0  93735-4 0  9998
2 23561  98.4421 197.1617 0006056 338.7782  31.9803 14.39810229627563
SL-16 R/B               
1 23705U 95058B   26126.50953404 -.00000070  00000+0 -11237-4 0  9997
2 23705  71.0217  58.8612 0011529  22.1014 338.0604 14.15501924576032
SL-16 R/B               
1 24298U 96051B   26126.53084572  .00000123  00000+0  93161-4 0  9996
2 24298  70.7625  52.8115 0012669  46.3542 313.8626 14.12431293529818
ORBVIEW 2 (SEASTAR)     
1 24883U 97037A   26126.40920387  .00000230  00000+0  96283-4 0  9997
2 24883  98.8654 292.2783 0001254 229.6134 130.4941 14.35531679516759
SL-16 R/B               
1 25400U 98043G   26126.33547187  .00000050  00000+0  39915-4 0  9995
2 25400  98.8338  80.1418 0009347 201.6285 158.4501 14.26061877447204
SL-16 R/B               
1 25407U 98045B   26126.20955228  .00000299  00000+0  17490-3 0  9997
2 25407  71.0118  60.6087 0009427 291.1067  68.9048 14.16199031435241
ISS (ZARYA)             
1 25544U 98067A   26126.52211724  .00006761  00000+0  13018-3 0  9996
2 25544  51.6304 146.3415 0007423  29.8733 330.2678 15.49120518565295
CZ-4B R/B               
1 25732U 99025C   26126.36393696  .00000048  00000+0  43670-4 0  9991
2 25732  98.6519 169.2477 0037206 177.2560 193.4277 14.18276115396345
OKEAN-O                 
1 25860U 99039A   26126.17225257  .00000579  00000+0  82559-4 0  9992
2 25860  97.9342 185.4470 0001799 107.4220 252.7189 14.80416783442891
SL-16 R/B               
1 25861U 99039B   26126.57092237  .00000503  00000+0  70378-4 0  9990
2 25861  97.9864 185.5472 0016105  71.7266 288.5698 14.81803508445435
DELTA 2 R/B             
1 25876U 99041E   26126.55735758  .00000470  00000+0  11465-3 0  9993
2 25876  51.7619  70.0964 0502202 159.0752 203.1555 14.11946051371201
HELIOS 1B               
1 25977U 99064A   26126.28333075  .00001427  00000+0  16228-3 0  9991
2 25977  98.1642  30.2077 0000784 134.1329 225.9951 14.87895157693829
TERRA                   
1 25994U 99068A   26126.60283991  .00000388  00000+0  88017-4 0  9992
2 25994  97.9488 177.7913 0002587  33.9231 120.0567 14.61070139403532
SL-16 R/B               
1 26070U 00006B   26126.31056192 -.00000090  00000+0 -21260-4 0  9990
2 26070  71.0035 336.6802 0014265  94.3116 265.9638 14.15834805356713
TITAN 4B R/B            
1 26474U 00047B   26126.59688719  .00002653  00000+0  16784-3 0  9998
2 26474  67.9890 237.6165 0043457 329.9634  29.9022 15.09982770401651
ENVISAT                 
1 27386U 02009A   26126.40138078  .00000105  00000+0  47897-4 0  9999
2 27386  98.3809  78.6587 0001153  90.0392  19.4408 14.39054905267471
IDEFIX & ARIANE 42P R/B 
1 27422U 02021B   26126.52859969  .00000248  00000+0  11060-3 0  9996
2 27422  98.5928  64.4678 0012340  22.6753 337.4973 14.31062013252297
AQUA                    
1 27424U 02022A   26126.58314228  .00000847  00000+0  17841-3 0  9997
2 27424  98.4255  95.0439 0002132  84.5257 336.8051 14.62094059277195
CZ-4B R/B               
1 27432U 02024C   26126.59641899  .00000035  00000+0  40799-4 0  9994
2 27432  98.8731 179.6791 0049527 217.5130 293.6694 14.14557585237424
MIDORI II (ADEOS-II)    
1 27597U 02056A   26126.34674847  .00000277  00000+0  12665-3 0  9991
2 27597  98.7853  85.2587 0001332 132.6280 227.5014 14.29325802218534
H-2A R/B                
1 27601U 02056E   26126.36838894  .00000307  00000+0  12201-3 0  9993
2 27601  98.3288  84.5739 0070038 350.8886 162.4469 14.33801388222375
CZ-4B R/B               
1 28059U 03049C   26126.42255336  .00000366  00000+0  95305-4 0  9997
2 28059  98.6899 123.6093 0049149  56.3569 304.2301 14.55069674194992
CZ-2C R/B               
1 28222U 04012C   26126.16812072  .00073391  00000+0  55631-3 0  9992
2 28222  97.7111 197.1957 0012312 101.5060 258.7586 15.72048057213281
SL-16 R/B               
1 28353U 04021B   26126.44120018 -.00000073  00000+0 -13417-4 0  9996
2 28353  70.9978 111.2977 0006862 298.3182  61.7247 14.14601574131001
CZ-4B R/B               
1 28415U 04035C   26126.34886446  .00007467  00000+0  25557-3 0  9992
2 28415  97.3399 159.9077 0033039 122.5164 237.9277 15.29992270188728
CZ-2C R/B               
1 28480U 04046B   26126.33212379  .00000161  00000+0  75453-4 0  9998
2 28480  98.1965  37.7228 0139115 344.9603  14.7462 14.27014853116726
ARIANE 5 R/B            
1 28499U 04049H   26126.43305493  .00001016  00000+0  11777-3 0  9990
2 28499  98.2699 297.0817 0084410 163.1189 197.2865 14.85379295154367
